KUIPER-00117            
1 65949U 25228C   26188.42845464  .00001508  00000+0  22675-3 0  9992
2 65949  51.8967 188.5905 0000472  65.3996 294.7016 14.79937198 40997
KUIPER-00121            
1 65950U 25228D   26187.99491718  .00001848  00000+0  27132-3 0  9994
2 65950  51.8979 185.5197 0000481  65.5262 294.5751 14.79929500 41005
KUIPER-00122            
1 65951U 25228E   26188.72695096  .00001356  00000+0  20682-3 0  9999
2 65951  51.8964 192.2570 0000506  71.8160 288.2858 14.79927392 40975
KUIPER-00123            
1 65952U 25228F   26188.01788967  .00001490  00000+0  22445-3 0  9990
2 65952  51.8967 195.4049 0000437  51.8443 308.2559 14.79933049 40865
KUIPER-00124            
1 65953U 25228G   26188.36362518  .00001781  00000+0  26261-3 0  9992
2 65953  51.8969 186.3635 0000510  73.6674 286.4345 14.79930006 41027
KUIPER-00125            
1 65954U 25228H   26187.70450785  .00002087  00000+0  30272-3 0  9991
2 65954  51.8984 174.3216 0000566  59.4296 300.6722 14.79934870 41133
KUIPER-00126            
1 65955U 25228J   26188.72965281  .00001491  00000+0  22448-3 0  9991
2 65955  51.8975 189.7756 0000546  73.6329 286.4693 14.79933635 41008
KUIPER-00127            
1 65956U 25228K   26188.72083177 -.00001010  00000+0 -10348-3 0  9992
2 65956  51.8997 182.2843 0000662  68.2890 291.8142 14.79920895 41115
KUIPER-00128            
1 65957U 25228L   26188.36633008  .00001727  00000+0  25556-3 0  9997
2 65957  51.8994 183.9163 0000487  73.8445 286.2571 14.79927545 41055
KUIPER-00129            
1 65958U 25228M   26188.00031050  .00001478  00000+0  22289-3 0  9991
2 65958  51.8984 180.5165 0000494  70.1656 289.9360 14.79926177 41070
KUIPER-00130            
1 65959U 25228N   26188.03138175  .00001469  00000+0  22171-3 0  9991
2 65959  51.9009 182.9109 0000494  67.7392 292.3623 14.79929634 31332
KUIPER-00134            
1 65960U 25228P   26186.99872307  .00018501  00000+0  43935-3 0  9994
2 65960  51.8704 105.8042 0006526  21.2544 338.8715 15.41717935 42026
KUIPER-00135            
1 65961U 25228Q   26187.72749298 -.00000120  00000+0  13202-4 0  9993
2 65961  51.8994 184.3093 0000520  53.8162 306.2848 14.79932763 40999
KUIPER-00136            
1 65962U 25228R   26188.03407503  .00001464  00000+0  22096-3 0  9990
2 65962  51.8990 180.4098 0000527  59.1809 300.9206 14.79930720 41072
KUIPER-00137            
1 65963U 25228S   26188.37442556  .00001398  00000+0  21231-3 0  9991
2 65963  51.9015 176.3976 0000548  64.7207 295.3813 14.79932497 41162
KUIPER-00138            
1 65964U 25228T   26187.39792403  .00000079  00000+0  39380-4 0  9992
2 65964  51.8971 178.1472 0000516  76.7176 283.3844 14.79928564 41056
