{"fetched_at":"2026-07-08T07:03:33.083Z","source":"https://celestrak.org/NORAD/elements/gp.php?GROUP=kuiper&FORMAT=JSON","constellation":"kuiper","records":[{"OBJECT_NAME":"KUIPER-00117","OBJECT_ID":"2025-228C","EPOCH":"2026-07-07T10:16:58.480896","CLASSIFICATION_TYPE":"U","MEAN_MOTION":14.79937198,"ECCENTRICITY":0.00004725,"INCLINATION":51.8967,"RA_OF_ASC_NODE":188.5905,"ARG_OF_PERICENTER":65.3996,"MEAN_ANOMALY":294.7016,"EPHEMERIS_TYPE":0,"NORAD_CAT_ID":65949,"ELEMENT_SET_NO":999,"REV_AT_EPOCH":4099,"BSTAR":0.00022674988,"MEAN_MOTION_DOT":0.00001508,"MEAN_MOTION_DDOT":0},{"OBJECT_NAME":"KUIPER-00121","OBJECT_ID":"2025-228D","EPOCH":"2026-07-06T23:52:40.844352","CLASSIFICATION_TYPE":"U","MEAN_MOTION":14.799295,"ECCENTRICITY":0.00004811,"INCLINATION":51.8979,"RA_OF_ASC_NODE":185.5197,"ARG_OF_PERICENTER":65.5262,"MEAN_ANOMALY":294.5751,"EPHEMERIS_TYPE":0,"NORAD_CAT_ID":65950,"ELEMENT_SET_NO":999,"REV_AT_EPOCH":4100,"BSTAR":0.00027132413,"MEAN_MOTION_DOT":0.00001848,"MEAN_MOTION_DDOT":0},{"OBJECT_NAME":"KUIPER-00122","OBJECT_ID":"2025-228E","EPOCH":"2026-07-07T17:26:48.562944","CLASSIFICATION_TYPE":"U","MEAN_MOTION":14.79927392,"ECCENTRICITY":0.0000506,"INCLINATION":51.8964,"RA_OF_ASC_NODE":192.257,"ARG_OF_PERICENTER":71.816,"MEAN_ANOMALY":288.2858,"EPHEMERIS_TYPE":0,"NORAD_CAT_ID":65951,"ELEMENT_SET_NO":999,"REV_AT_EPOCH":4097,"BSTAR":0.00020682,"MEAN_MOTION_DOT":0.00001356,"MEAN_MOTION_DDOT":0},{"OBJECT_NAME":"KUIPER-00123","OBJECT_ID":"2025-228F","EPOCH":"2026-07-07T00:25:45.667488","CLASSIFICATION_TYPE":"U","MEAN_MOTION":14.79933049,"ECCENTRICITY":0.00004373,"INCLINATION":51.8967,"RA_OF_ASC_NODE":195.4049,"ARG_OF_PERICENTER":51.8443,"MEAN_ANOMALY":308.2559,"EPHEMERIS_TYPE":0,"NORAD_CAT_ID":65952,"ELEMENT_SET_NO":999,"REV_AT_EPOCH":4086,"BSTAR":0.00022444541,"MEAN_MOTION_DOT":0.0000149,"MEAN_MOTION_DDOT":0},{"OBJECT_NAME":"KUIPER-00124","OBJECT_ID":"2025-228G","EPOCH":"2026-07-07T08:43:37.215552","CLASSIFICATION_TYPE":"U","MEAN_MOTION":14.79930006,"ECCENTRICITY":0.00005107,"INCLINATION":51.8969,"RA_OF_ASC_NODE":186.3635,"ARG_OF_PERICENTER":73.6674,"MEAN_ANOMALY":286.4345,"EPHEMERIS_TYPE":0,"NORAD_CAT_ID":65953,"ELEMENT_SET_NO":999,"REV_AT_EPOCH":4102,"BSTAR":0.000262611,"MEAN_MOTION_DOT":0.00001781,"MEAN_MOTION_DDOT":0},{"OBJECT_NAME":"KUIPER-00125","OBJECT_ID":"2025-228H","EPOCH":"2026-07-06T16:54:29.478240","CLASSIFICATION_TYPE":"U","MEAN_MOTION":14.7993487,"ECCENTRICITY":0.00005667,"INCLINATION":51.8984,"RA_OF_ASC_NODE":174.3216,"ARG_OF_PERICENTER":59.4296,"MEAN_ANOMALY":300.6722,"EPHEMERIS_TYPE":0,"NORAD_CAT_ID":65954,"ELEMENT_SET_NO":999,"REV_AT_EPOCH":4113,"BSTAR":0.00030272361,"MEAN_MOTION_DOT":0.00002087,"MEAN_MOTION_DDOT":0},{"OBJECT_NAME":"KUIPER-00126","OBJECT_ID":"2025-228J","EPOCH":"2026-07-07T17:30:42.002784","CLASSIFICATION_TYPE":"U","MEAN_MOTION":14.79933635,"ECCENTRICITY":0.0000546,"INCLINATION":51.8975,"RA_OF_ASC_NODE":189.7756,"ARG_OF_PERICENTER":73.6329,"MEAN_ANOMALY":286.4693,"EPHEMERIS_TYPE":0,"NORAD_CAT_ID":65955,"ELEMENT_SET_NO":999,"REV_AT_EPOCH":4100,"BSTAR":0.00022448,"MEAN_MOTION_DOT":0.00001491,"MEAN_MOTION_DDOT":0},{"OBJECT_NAME":"KUIPER-00127","OBJECT_ID":"2025-228K","EPOCH":"2026-07-07T17:17:59.864928","CLASSIFICATION_TYPE":"U","MEAN_MOTION":14.79920895,"ECCENTRICITY":0.0000662,"INCLINATION":51.8997,"RA_OF_ASC_NODE":182.2843,"ARG_OF_PERICENTER":68.289,"MEAN_ANOMALY":291.8142,"EPHEMERIS_TYPE":0,"NORAD_CAT_ID":65956,"ELEMENT_SET_NO":999,"REV_AT_EPOCH":4111,"BSTAR":-0.00010348,"MEAN_MOTION_DOT":-0.0000101,"MEAN_MOTION_DDOT":0},{"OBJECT_NAME":"KUIPER-00128","OBJECT_ID":"2025-228L","EPOCH":"2026-07-07T08:47:30.918912","CLASSIFICATION_TYPE":"U","MEAN_MOTION":14.79927545,"ECCENTRICITY":0.00004871,"INCLINATION":51.8994,"RA_OF_ASC_NODE":183.9163,"ARG_OF_PERICENTER":73.8445,"MEAN_ANOMALY":286.2571,"EPHEMERIS_TYPE":0,"NORAD_CAT_ID":65957,"ELEMENT_SET_NO":999,"REV_AT_EPOCH":4105,"BSTAR":0.00025556257,"MEAN_MOTION_DOT":0.00001727,"MEAN_MOTION_DDOT":0},{"OBJECT_NAME":"KUIPER-00129","OBJECT_ID":"2025-228M","EPOCH":"2026-07-07T00:00:26.827200","CLASSIFICATION_TYPE":"U","MEAN_MOTION":14.79926177,"ECCENTRICITY":0.00004944,"INCLINATION":51.8984,"RA_OF_ASC_NODE":180.5165,"ARG_OF_PERICENTER":70.1656,"MEAN_ANOMALY":289.936,"EPHEMERIS_TYPE":0,"NORAD_CAT_ID":65958,"ELEMENT_SET_NO":999,"REV_AT_EPOCH":4107,"BSTAR":0.00022289278,"MEAN_MOTION_DOT":0.00001478,"MEAN_MOTION_DDOT":0},{"OBJECT_NAME":"KUIPER-00130","OBJECT_ID":"2025-228N","EPOCH":"2026-07-07T00:45:11.383200","CLASSIFICATION_TYPE":"U","MEAN_MOTION":14.79929634,"ECCENTRICITY":0.00004944,"INCLINATION":51.9009,"RA_OF_ASC_NODE":182.9109,"ARG_OF_PERICENTER":67.7392,"MEAN_ANOMALY":292.3623,"EPHEMERIS_TYPE":0,"NORAD_CAT_ID":65959,"ELEMENT_SET_NO":999,"REV_AT_EPOCH":3133,"BSTAR":0.00022170692,"MEAN_MOTION_DOT":0.00001469,"MEAN_MOTION_DDOT":0},{"OBJECT_NAME":"KUIPER-00134","OBJECT_ID":"2025-228P","EPOCH":"2026-07-05T23:58:09.673248","CLASSIFICATION_TYPE":"U","MEAN_MOTION":15.41717935,"ECCENTRICITY":0.0006526,"INCLINATION":51.8704,"RA_OF_ASC_NODE":105.8042,"ARG_OF_PERICENTER":21.2544,"MEAN_ANOMALY":338.8715,"EPHEMERIS_TYPE":0,"NORAD_CAT_ID":65960,"ELEMENT_SET_NO":999,"REV_AT_EPOCH":4202,"BSTAR":0.00043935,"MEAN_MOTION_DOT":0.00018501,"MEAN_MOTION_DDOT":0},{"OBJECT_NAME":"KUIPER-00135","OBJECT_ID":"2025-228Q","EPOCH":"2026-07-06T17:27:35.393472","CLASSIFICATION_TYPE":"U","MEAN_MOTION":14.79932763,"ECCENTRICITY":0.00005205,"INCLINATION":51.8994,"RA_OF_ASC_NODE":184.3093,"ARG_OF_PERICENTER":53.8162,"MEAN_ANOMALY":306.2848,"EPHEMERIS_TYPE":0,"NORAD_CAT_ID":65961,"ELEMENT_SET_NO":999,"REV_AT_EPOCH":4099,"BSTAR":0.000013201656,"MEAN_MOTION_DOT":-0.0000012,"MEAN_MOTION_DDOT":0},{"OBJECT_NAME":"KUIPER-00136","OBJECT_ID":"2025-228R","EPOCH":"2026-07-07T00:49:04.082592","CLASSIFICATION_TYPE":"U","MEAN_MOTION":14.7993072,"ECCENTRICITY":0.00005276,"INCLINATION":51.899,"RA_OF_ASC_NODE":180.4098,"ARG_OF_PERICENTER":59.1809,"MEAN_ANOMALY":300.9206,"EPHEMERIS_TYPE":0,"NORAD_CAT_ID":65962,"ELEMENT_SET_NO":999,"REV_AT_EPOCH":4107,"BSTAR":0.00022095614,"MEAN_MOTION_DOT":0.00001464,"MEAN_MOTION_DDOT":0},{"OBJECT_NAME":"KUIPER-00137","OBJECT_ID":"2025-228S","EPOCH":"2026-07-07T08:59:10.368384","CLASSIFICATION_TYPE":"U","MEAN_MOTION":14.79932497,"ECCENTRICITY":0.00005483,"INCLINATION":51.9015,"RA_OF_ASC_NODE":176.3976,"ARG_OF_PERICENTER":64.7207,"MEAN_ANOMALY":295.3813,"EPHEMERIS_TYPE":0,"NORAD_CAT_ID":65963,"ELEMENT_SET_NO":999,"REV_AT_EPOCH":4116,"BSTAR":0.0002123115,"MEAN_MOTION_DOT":0.00001398,"MEAN_MOTION_DDOT":0},{"OBJECT_NAME":"KUIPER-00138","OBJECT_ID":"2025-228T","EPOCH":"2026-07-06T09:33:00.636192","CLASSIFICATION_TYPE":"U","MEAN_MOTION":14.79928564,"ECCENTRICITY":0.0000516,"INCLINATION":51.8971,"RA_OF_ASC_NODE":178.1472,"ARG_OF_PERICENTER":76.7176,"MEAN_ANOMALY":283.3844,"EPHEMERIS_TYPE":0,"NORAD_CAT_ID":65964,"ELEMENT_SET_NO":999,"REV_AT_EPOCH":4105,"BSTAR":0.00003937996,"MEAN_MOTION_DOT":7.9e-7,"MEAN_MOTION_DDOT":0}]}
